STARLINK-30560          
1 58038U 23156L   26068.28300882 -.00000354  00000+0  18210-6 0  9994
2 58038  53.1606  77.4177 0001384  96.4557 263.6601 15.30193311136249
NUSAT-48 (HENRIETTA LE*)
1 60498U 24149AG  26068.80506098  .00012988  00000+0  45212-3 0  9999
2 60498  97.3923 150.8264 0002754 263.3026  96.7901 15.29812597 86946
